{"type": "FeatureCollection", "features": [ {"type": "Feature", "properties": {"norad_id": 30728, "name": "FENGYUN 1C DEB", "group": "fengyun-1c-debris", "lat": -33.62611840067894, "lon": -178.5002973601272, "alt_km": 890.5515926069547, "timestamp": "2025-12-26T23:26:42.406655+00:00", "meta": {"OBJECT_NAME": "FENGYUN 1C DEB", "OBJECT_ID": "1999-025ASN", "EPOCH": "2025-12-26T07:15:52.619904", "MEAN_MOTION": 14.23479242, "ECCENTRICITY": 0.00991859, "INCLINATION": 98.5293, "RA_OF_ASC_NODE": 6.574, "ARG_OF_PERICENTER": 42.8697, "MEAN_ANOMALY": 318.0161, "EPHEMERIS_TYPE": 0, "CLASSIFICATION_TYPE": "U", "NORAD_CAT_ID": 30728, "ELEMENT_SET_NO": 999, "REV_AT_EPOCH": 97882, "BSTAR": 8.1409685e-05, "MEAN_MOTION_DOT": 1.53e-06, "MEAN_MOTION_DDOT": 0}, "tle": {"line1": "1 30728U 99025ASN 25360.30269236  .00000153  00000+0  81410-4 0  9998", "line2": "2 30728  98.5293   6.5740 0099185  42.8697 318.0161 14.23479242978820"}}, "geometry": {"type": "Point", "coordinates": [-178.5002973601272, -33.62611840067894]}}, {"type": "Feature", "properties": {"norad_id": 30730, "name": "FENGYUN 1C DEB", "group": "fengyun-1c-debris", "lat": -73.01796275087688, "lon": -169.91926316016372, "alt_km": 834.9207139054679, "timestamp": "2025-12-26T23:26:42.406664+00:00", "meta": {"OBJECT_NAME": "FENGYUN 1C DEB", "OBJECT_ID": "1999-025ASQ", "EPOCH": "2025-12-26T14:31:50.002176", "MEAN_MOTION": 14.25537661, "ECCENTRICITY": 0.00776755, "INCLINATION": 98.6175, "RA_OF_ASC_NODE": 39.4888, "ARG_OF_PERICENTER": 8.8271, "MEAN_ANOMALY": 142.1548, "EPHEMERIS_TYPE": 0, "CLASSIFICATION_TYPE": "U", "NORAD_CAT_ID": 30730, "ELEMENT_SET_NO": 999, "REV_AT_EPOCH": 97203, "BSTAR": 0.00097466261, "MEAN_MOTION_DOT": 2.336e-05, "MEAN_MOTION_DDOT": 0}, "tle": {"line1": "1 30730U 99025ASQ 25360.60543984  .00002336  00000+0  97466-3 0  9991", "line2": "2 30730  98.6175  39.4888 0077675   8.8271 142.1548 14.25537661972035"}}, "geometry": {"type": "Point", "coordinates": [-169.91926316016372, -73.01796275087688]}}, {"type": "Feature", "properties": {"norad_id": 30731, "name": "FENGYUN 1C DEB", "group": "fengyun-1c-debris", "lat": -1.227641368512753, "lon": -99.27442245333519, "alt_km": 744.9142476271736, "timestamp": "2025-12-26T23:26:42.406672+00:00", "meta": {"OBJECT_NAME": "FENGYUN 1C DEB", "OBJECT_ID": "1999-025ASR", "EPOCH": "2025-12-26T11:32:31.506144", "MEAN_MOTION": 14.41953658, "ECCENTRICITY": 0.00158787, "INCLINATION": 98.8577, "RA_OF_ASC_NODE": 80.4027, "ARG_OF_PERICENTER": 208.2335, "MEAN_ANOMALY": 279.894, "EPHEMERIS_TYPE": 0, "CLASSIFICATION_TYPE": "U", "NORAD_CAT_ID": 30731, "ELEMENT_SET_NO": 999, "REV_AT_EPOCH": 97554, "BSTAR": 0.0022164327, "MEAN_MOTION_DOT": 7.235e-05, "MEAN_MOTION_DDOT": 0}, "tle": {"line1": "1 30731U 99025ASR 25360.48092021  .00007235  00000+0  22164-2 0  9994", "line2": "2 30731  98.8577  80.4027 0015878 208.2335 279.8940 14.41953658975548"}}, "geometry": {"type": "Point", "coordinates": [-99.27442245333519, -1.227641368512753]}}, {"type": "Feature", "properties": {"norad_id": 30732, "name": "FENGYUN 1C DEB", "group": "fengyun-1c-debris", "lat": 32.595225412260945, "lon": -153.66703445642887, "alt_km": 794.5730366951193, "timestamp": "2025-12-26T23:26:42.406681+00:00", "meta": {"OBJECT_NAME": "FENGYUN 1C DEB", "OBJECT_ID": "1999-025ASS", "EPOCH": "2025-12-26T13:12:15.535584", "MEAN_MOTION": 14.03913572, "ECCENTRICITY": 0.01242932, "INCLINATION": 98.8027, "RA_OF_ASC_NODE": 20.2335, "ARG_OF_PERICENTER": 170.3045, "MEAN_ANOMALY": 341.7178, "EPHEMERIS_TYPE": 0, "CLASSIFICATION_TYPE": "U", "NORAD_CAT_ID": 30732, "ELEMENT_SET_NO": 999, "REV_AT_EPOCH": 96385, "BSTAR": 0.00013304109, "MEAN_MOTION_DOT": 1.83e-06, "MEAN_MOTION_DDOT": 0}, "tle": {"line1": "1 30732U 99025ASS 25360.55017981  .00000183  00000+0  13304-3 0  9997", "line2": "2 30732  98.8027  20.2335 0124293 170.3045 341.7178 14.03913572963854"}}, "geometry": {"type": "Point", "coordinates": [-153.66703445642887, 32.595225412260945]}}, {"type": "Feature", "properties": {"norad_id": 30735, "name": "FENGYUN 1C DEB", "group": "fengyun-1c-debris", "lat": -32.61911075226679, "lon": 77.66135506501092, "alt_km": 841.1163111435981, "timestamp": "2025-12-26T23:26:42.406690+00:00", "meta": {"OBJECT_NAME": "FENGYUN 1C DEB", "OBJECT_ID": "1999-025ASV", "EPOCH": "2025-12-26T03:39:16.764768", "MEAN_MOTION": 14.24061785, "ECCENTRICITY": 0.00603666, "INCLINATION": 98.7622, "RA_OF_ASC_NODE": 71.1748, "ARG_OF_PERICENTER": 206.4863, "MEAN_ANOMALY": 214.9357, "EPHEMERIS_TYPE": 0, "CLASSIFICATION_TYPE": "U", "NORAD_CAT_ID": 30735, "ELEMENT_SET_NO": 999, "REV_AT_EPOCH": 96939, "BSTAR": 0.0016045311, "MEAN_MOTION_DOT": 3.715e-05, "MEAN_MOTION_DDOT": 0}, "tle": {"line1": "1 30735U 99025ASV 25360.15227737  .00003715  00000+0  16045-2 0  9996", "line2": "2 30735  98.7622  71.1748 0060366 206.4863 214.9357 14.24061785969397"}}, "geometry": {"type": "Point", "coordinates": [77.66135506501092, -32.61911075226679]}}, {"type": "Feature", "properties": {"norad_id": 30736, "name": "FENGYUN 1C DEB", "group": "fengyun-1c-debris", "lat": -78.40616285900634, "lon": 168.62168587815708, "alt_km": 1118.594055417384, "timestamp": "2025-12-26T23:26:42.406699+00:00", "meta": {"OBJECT_NAME": "FENGYUN 1C DEB", "OBJECT_ID": "1999-025ASW", "EPOCH": "2025-12-22T02:01:20.851104", "MEAN_MOTION": 13.6166731, "ECCENTRICITY": 0.0279263, "INCLINATION": 98.7812, "RA_OF_ASC_NODE": 33.0986, "ARG_OF_PERICENTER": 29.8764, "MEAN_ANOMALY": 24.4821, "EPHEMERIS_TYPE": 0, "CLASSIFICATION_TYPE": "U", "NORAD_CAT_ID": 30736, "ELEMENT_SET_NO": 999, "REV_AT_EPOCH": 92980, "BSTAR": 0.0017109698, "MEAN_MOTION_DOT": 1.664e-05, "MEAN_MOTION_DDOT": 0}, "tle": {"line1": "1 30736U 99025ASW 25356.08426911  .00001664  00000+0  17110-2 0  9994", "line2": "2 30736  98.7812  33.0986 0279263  29.8764  24.4821 13.61667310929803"}}, "geometry": {"type": "Point", "coordinates": [168.62168587815708, -78.40616285900634]}}, {"type": "Feature", "properties": {"norad_id": 30737, "name": "FENGYUN 1C DEB", "group": "fengyun-1c-debris", "lat": -42.844679073893225, "lon": -9.129343520740703, "alt_km": 850.3258263203288, "timestamp": "2025-12-26T23:26:42.406708+00:00", "meta": {"OBJECT_NAME": "FENGYUN 1C DEB", "OBJECT_ID": "1999-025ASX", "EPOCH": "2025-12-26T10:49:10.485120", "MEAN_MOTION": 14.18271568, "ECCENTRICITY": 0.0024507, "INCLINATION": 98.5806, "RA_OF_ASC_NODE": 342.3123, "ARG_OF_PERICENTER": 93.4091, "MEAN_ANOMALY": 58.9809, "EPHEMERIS_TYPE": 0, "CLASSIFICATION_TYPE": "U", "NORAD_CAT_ID": 30737, "ELEMENT_SET_NO": 999, "REV_AT_EPOCH": 97227, "BSTAR": 0.00032557757, "MEAN_MOTION_DOT": 6.3e-06, "MEAN_MOTION_DDOT": 0}, "tle": {"line1": "1 30737U 99025ASX 25360.45081580  .00000630  00000+0  32558-3 0  9996", "line2": "2 30737  98.5806 342.3123 0024507  93.4091  58.9809 14.18271568972279"}}, "geometry": {"type": "Point", "coordinates": [-9.129343520740703, -42.844679073893225]}}, {"type": "Feature", "properties": {"norad_id": 30739, "name": "FENGYUN 1C DEB", "group": "fengyun-1c-debris", "lat": -79.34124182604062, "lon": 113.35988055535829, "alt_km": 779.0679344808905, "timestamp": "2025-12-26T23:26:42.406717+00:00", "meta": {"OBJECT_NAME": "FENGYUN 1C DEB", "OBJECT_ID": "1999-025ASZ", "EPOCH": "2025-12-26T11:02:25.467936", "MEAN_MOTION": 14.14974827, "ECCENTRICITY": 0.01000867, "INCLINATION": 98.6936, "RA_OF_ASC_NODE": 347.2423, "ARG_OF_PERICENTER": 277.5939, "MEAN_ANOMALY": 235.0768, "EPHEMERIS_TYPE": 0, "CLASSIFICATION_TYPE": "U", "NORAD_CAT_ID": 30739, "ELEMENT_SET_NO": 999, "REV_AT_EPOCH": 97057, "BSTAR": 0.0003843092, "MEAN_MOTION_DOT": 7.36e-06, "MEAN_MOTION_DDOT": 0}, "tle": {"line1": "1 30739U 99025ASZ 25360.46001699  .00000736  00000+0  38431-3 0  9995", "line2": "2 30739  98.6936 347.2423 0100086 277.5939 235.0768 14.14974827970573"}}, "geometry": {"type": "Point", "coordinates": [113.35988055535829, -79.34124182604062]}}, {"type": "Feature", "properties": {"norad_id": 30740, "name": "FENGYUN 1C DEB", "group": "fengyun-1c-debris", "lat": 18.89773219488866, "lon": 103.56897277492136, "alt_km": 712.7955699035138, "timestamp": "2025-12-26T23:26:42.406726+00:00", "meta": {"OBJECT_NAME": "FENGYUN 1C DEB", "OBJECT_ID": "1999-025ATA", "EPOCH": "2025-12-24T18:26:23.859744", "MEAN_MOTION": 14.52140377, "ECCENTRICITY": 0.00307037, "INCLINATION": 98.6886, "RA_OF_ASC_NODE": 104.2854, "ARG_OF_PERICENTER": 100.2899, "MEAN_ANOMALY": 260.1759, "EPHEMERIS_TYPE": 0, "CLASSIFICATION_TYPE": "U", "NORAD_CAT_ID": 30740, "ELEMENT_SET_NO": 999, "REV_AT_EPOCH": 97822, "BSTAR": 0.0024640921, "MEAN_MOTION_DOT": 0.00010009, "MEAN_MOTION_DDOT": 0}, "tle": {"line1": "1 30740U 99025ATA 25358.76833171  .00010009  00000+0  24641-2 0  9996", "line2": "2 30740  98.6886 104.2854 0030703 100.2899 260.1759 14.52140377978229"}}, "geometry": {"type": "Point", "coordinates": [103.56897277492136, 18.89773219488866]}}, {"type": "Feature", "properties": {"norad_id": 30741, "name": "FENGYUN 1C DEB", "group": "fengyun-1c-debris", "lat": 62.5472295481623, "lon": -7.283357309954966, "alt_km": 837.213197552247, "timestamp": "2025-12-26T23:26:42.406741+00:00", "meta": {"OBJECT_NAME": "FENGYUN 1C DEB", "OBJECT_ID": "1999-025ATB", "EPOCH": "2025-12-26T11:58:16.579200", "MEAN_MOTION": 14.13242416, "ECCENTRICITY": 0.000721, "INCLINATION": 98.6791, "RA_OF_ASC_NODE": 9.3513, "ARG_OF_PERICENTER": 83.3241, "MEAN_ANOMALY": 69.6687, "EPHEMERIS_TYPE": 0, "CLASSIFICATION_TYPE": "U", "NORAD_CAT_ID": 30741, "ELEMENT_SET_NO": 999, "REV_AT_EPOCH": 97013, "BSTAR": 0.00015714935, "MEAN_MOTION_DOT": 2.52e-06, "MEAN_MOTION_DDOT": 0}, "tle": {"line1": "1 30741U 99025ATB 25360.49880300  .00000252  00000+0  15715-3 0  9998", "line2": "2 30741  98.6791   9.3513 0007210  83.3241  69.6687 14.13242416970139"}}, "geometry": {"type": "Point", "coordinates": [-7.283357309954966, 62.5472295481623]}}]}